NORAD_CAT_ID,OBJECT_NAME,OBJECT_TYPE,EPOCH,MEAN_MOTION,ECCENTRICITY,INCLINATION,RA_OF_ASC_NODE,ARG_OF_PERICENTER,MEAN_ANOMALY,BSTAR,MEAN_MOTION_DOT,MEAN_MOTION_DDOT,TLE_LINE0,TLE_LINE1,TLE_LINE2,SEMIMAJOR_AXIS,PERIOD,APOGEE,PERIGEE,DECAYED
49765.0,STARLINK-3227,PAYLOAD,2023-10-12 19:59:46,15.08848515,0.0001252,53.2156,124.4707,93.5675,266.546,0.00028766,4.294e-05,0.0,0 STARLINK-3227,1 49765U 21115AT  23285.83317428  .00004294  00000-0  28766-3 0  9998,2 49765  53.2156 124.4707 0001252  93.5675 266.5460 15.08848515103003,6917.854,95.437,540.585,538.853,0.0
49765.0,STARLINK-3227,PAYLOAD,2023-10-13 19:50:33,15.08846463,0.0001283,53.2148,120.0098,85.6679,274.446,0.00014907,2.086e-05,0.0,0 STARLINK-3227,1 49765U 21115AT  23286.82677465  .00002086  00000-0  14907-3 0  9997,2 49765  53.2148 120.0098 0001283  85.6679 274.4460 15.08846463104266,6917.861,95.437,540.613,538.838,0.0
49765.0,STARLINK-3227,PAYLOAD,2023-10-14 13:19:47,15.08842909,0.0001314,53.2149,116.7379,86.1548,273.9594,8.3742e-05,1.045e-05,0.0,0 STARLINK-3227,1 49765U 21115AT  23287.55541526  .00001045  00000-0  83742-4 0  9994,2 49765  53.2149 116.7379 0001314  86.1548 273.9594 15.08842909103269,6917.871,95.437,540.646,538.827,0.0
49765.0,STARLINK-3227,PAYLOAD,2023-10-14 19:41:20,15.08848399,0.0001301,53.215,115.5489,85.2281,274.886,0.00012463,1.697e-05,0.0,0 STARLINK-3227,1 49765U 21115AT  23287.82037175  .00001697  00000-0  12463-3 0  9998,2 49765  53.2150 115.5489 0001301  85.2281 274.8860 15.08848399103300,6917.855,95.437,540.62,538.82,0.0
49765.0,STARLINK-3227,PAYLOAD,2023-10-15 05:13:39,15.08841615,0.0001354,53.2149,113.7639,82.1203,277.9942,5.9825e-05,6.64e-06,0.0,0 STARLINK-3227,1 49765U 21115AT  23288.21781420  .00000664  00000-0  59825-4 0  9998,2 49765  53.2149 113.7639 0001354  82.1203 277.9942 15.08841615104471,6917.875,95.437,540.677,538.804,0.0
49765.0,STARLINK-3227,PAYLOAD,2023-10-15 19:32:07,15.08837568,0.0001345,53.2157,111.0886,90.4031,269.7115,-1.5345e-05,-5.32e-06,0.0,0 STARLINK-3227,1 49765U 21115AT  23288.81397632 -.00000532  00000-0 -15345-4 0  9997,2 49765  53.2157 111.0886 0001345  90.4031 269.7115 15.08837568103456,6917.888,95.438,540.683,538.822,0.0
49765.0,STARLINK-3227,PAYLOAD,2023-10-16 05:04:26,15.08839345,0.000133,53.2169,109.3046,85.8505,274.2639,6.2941e-05,7.14e-06,0.0,0 STARLINK-3227,1 49765U 21115AT  23289.21141936  .00000714  00000-0  62941-4 0  9990,2 49765  53.2169 109.3046 0001330  85.8505 274.2639 15.08839345104622,6917.882,95.438,540.667,538.827,0.0
49765.0,STARLINK-3227,PAYLOAD,2023-10-16 11:25:59,15.08838083,0.0001349,53.2174,108.116,87.3593,272.7554,9.2166e-05,1.179e-05,0.0,0 STARLINK-3227,1 49765U 21115AT  23289.47638029  .00001179  00000-0  92166-4 0  9990,2 49765  53.2174 108.1160 0001349  87.3593 272.7554 15.08838083103554,6917.886,95.438,540.684,538.818,0.0
49765.0,STARLINK-3227,PAYLOAD,2023-10-16 20:58:18,15.08837654,0.0001682,53.2174,106.3316,94.8892,265.2292,7.7066e-05,9.39e-06,0.0,0 STARLINK-3227,1 49765U 21115AT  23289.87382155  .00000939  00000-0  77066-4 0  9995,2 49765  53.2174 106.3316 0001682  94.8892 265.2292 15.08837654103618,6917.888,95.438,540.916,538.589,0.0
49765.0,STARLINK-3227,PAYLOAD,2023-10-17 11:16:44,15.08853497,0.0001041,53.2173,103.6547,91.2911,268.82,0.00023898,3.519e-05,0.0,0 STARLINK-3227,1 49765U 21115AT  23290.46996308  .00003519  00000-0  23898-3 0  9993,2 49765  53.2173 103.6547 0001041  91.2911 268.8200 15.08853497104819,6917.839,95.437,540.424,538.984,0.0
49765.0,STARLINK-3227,PAYLOAD,2023-10-18 11:07:32,15.08850999,0.0002573,53.2107,99.1935,76.5774,283.5505,4.5257e-05,4.32e-06,0.0,0 STARLINK-3227,1 49765U 21115AT  23291.46356852  .00000432  00000-0  45257-4 0  9993,2 49765  53.2107  99.1935 0002573  76.5774 283.5505 15.08850999104962,6917.847,95.437,541.492,537.932,0.0
49765.0,STARLINK-3227,PAYLOAD,2023-10-18 20:39:52,15.08830315,0.0001272,53.2143,97.4082,82.7308,277.3829,-3.2849e-05,-8.1e-06,0.0,0 STARLINK-3227,1 49765U 21115AT  23291.86102122 -.00000810  00000-0 -32849-4 0  9991,2 49765  53.2143  97.4082 0001272  82.7308 277.3829 15.08830315105021,6917.91,95.438,540.655,538.895,0.0
49765.0,STARLINK-3227,PAYLOAD,2023-10-19 04:36:47,15.08843494,0.0001108,53.2174,95.9233,75.1239,284.9876,-8.065e-05,-1.571e-05,0.0,0 STARLINK-3227,1 49765U 21115AT  23292.19221377 -.00001571  00000-0 -80650-4 0  9990,2 49765  53.2174  95.9233 0001108  75.1239 284.9876 15.08843494105076,6917.87,95.437,540.501,538.968,0.0
49765.0,STARLINK-3227,PAYLOAD,2023-10-19 10:58:19,15.08847356,0.0001106,53.2161,94.732,78.6081,281.5035,-1.9802e-05,-6.03e-06,0.0,0 STARLINK-3227,1 49765U 21115AT  23292.45716884 -.00000603  00000-0 -19802-4 0  9997,2 49765  53.2161  94.7320 0001106  78.6081 281.5035 15.08847356104000,6917.858,95.437,540.488,538.958,0.0
49765.0,STARLINK-3227,PAYLOAD,2023-10-19 20:30:35,15.08882315,0.0001525,53.2145,92.9479,96.6452,263.4714,-0.00091014,-0.0001476,0.0,0 STARLINK-3227,1 49765U 21115AT  23292.85458293 -.00014760  00000-0 -91014-3 0  9991,2 49765  53.2145  92.9479 0001525  96.6452 263.4714 15.08882315105170,6917.751,95.435,540.671,538.561,0.0
49765.0,STARLINK-3227,PAYLOAD,2023-10-20 10:49:10,15.08789962,0.0002866,53.2142,90.2714,82.5529,277.5789,-0.00025595,-4.354e-05,0.0,0 STARLINK-3227,1 49765U 21115AT  23293.45081401 -.00004354  00000-0 -25595-3 0  9990,2 49765  53.2142  90.2714 0002866  82.5529 277.5789 15.08789962105260,6918.033,95.441,541.881,537.916,0.0
49765.0,STARLINK-3227,PAYLOAD,2023-10-20 13:59:56,15.08786313,0.0002044,53.2132,89.6757,93.7731,266.3495,-0.00027693,-4.686e-05,0.0,0 STARLINK-3227,1 49765U 21115AT  23293.58329860 -.00004686  00000-0 -27693-3 0  9997,2 49765  53.2132  89.6757 0002044  93.7731 266.3495 15.08786313104171,6918.044,95.441,541.324,538.495,0.0
49765.0,STARLINK-3227,PAYLOAD,2023-10-20 20:21:27,15.08831842,4.87e-05,53.217,88.4883,141.3543,218.7484,0.0004809,7.372e-05,0.0,0 STARLINK-3227,1 49765U 21115AT  23293.84824057  .00007372  00000-0  48090-3 0  9991,2 49765  53.2170  88.4883 0000487 141.3543 218.7484 15.08831842105325,6917.905,95.438,540.107,539.433,0.0
49765.0,STARLINK-3227,PAYLOAD,2023-10-21 17:01:28,15.08852985,0.0001205,53.2152,84.6241,75.7284,284.3842,0.00091015,0.00014232,0.0,0 STARLINK-3227,1 49765U 21115AT  23294.70935625  .00014232  00000-0  91015-3 0  9999,2 49765  53.2152  84.6241 0001205  75.7284 284.3842 15.08852985105454,6917.841,95.437,540.539,538.872,0.0
49765.0,STARLINK-3227,PAYLOAD,2023-10-22 10:30:42,15.08858522,0.0001149,53.2185,81.3534,88.6931,271.4193,0.00015205,2.134e-05,0.0,0 STARLINK-3227,1 49765U 21115AT  23295.43798901  .00002134  00000-0  15205-3 0  9999,2 49765  53.2185  81.3534 0001149  88.6931 271.4193 15.08858522105569,6917.824,95.436,540.484,538.894,0.0
49765.0,STARLINK-3227,PAYLOAD,2023-10-22 13:41:28,15.0885501,0.0001011,53.2183,80.76,112.6549,247.455,3.7037e-05,3.02e-06,0.0,0 STARLINK-3227,1 49765U 21115AT  23295.57046783  .00000302  00000-0  37037-4 0  9991,2 49765  53.2183  80.7600 0001011 112.6549 247.4550 15.08855010104473,6917.835,95.437,540.399,539.0,0.0
49765.0,STARLINK-3227,PAYLOAD,2023-10-22 16:52:14,15.08855325,9.22e-05,53.2179,80.1649,111.7038,248.4053,5.8514e-05,6.44e-06,0.0,0 STARLINK-3227,1 49765U 21115AT  23295.70294643  .00000644  00000-0  58514-4 0  9998,2 49765  53.2179  80.1649 0000922 111.7038 248.4053 15.08855325104498,6917.834,95.437,540.336,539.061,0.0
49765.0,STARLINK-3227,PAYLOAD,2023-10-23 02:24:33,15.08856175,0.0001263,53.2159,78.3787,93.0054,267.1082,4.8686e-05,4.87e-06,0.0,0 STARLINK-3227,1 49765U 21115AT  23296.10038414  .00000487  00000-0  48686-4 0  9999,2 49765  53.2159  78.3787 0001263  93.0054 267.1082 15.08856175105661,6917.831,95.437,540.57,538.822,0.0
49765.0,STARLINK-3227,PAYLOAD,2023-10-24 02:15:20,15.08840257,0.0001446,53.2171,73.9193,101.282,258.8335,-2.6693e-05,-7.13e-06,0.0,0 STARLINK-3227,1 49765U 21115AT  23297.09398692 -.00000713  00000-0 -26693-4 0  9993,2 49765  53.2171  73.9193 0001446 101.2820 258.8335 15.08840257105812,6917.88,95.438,540.745,538.744,0.0
49765.0,STARLINK-3227,PAYLOAD,2023-10-24 08:36:53,15.08840998,0.0001407,53.2171,72.7294,99.6324,260.4828,2.9734e-05,1.85e-06,0.0,0 STARLINK-3227,1 49765U 21115AT  23297.35894709  .00000185  00000-0  29734-4 0  9992,2 49765  53.2171  72.7294 0001407  99.6324 260.4828 15.08840998104746,6917.877,95.437,540.716,538.769,0.0
49765.0,STARLINK-3227,PAYLOAD,2023-10-25 14:49:12,15.08842126,0.0001639,53.2171,67.0784,84.6605,275.4574,0.00010075,1.316e-05,0.0,0 STARLINK-3227,1 49765U 21115AT  23298.61750861  .00001316  00000-0  10075-3 0  9996,2 49765  53.2171  67.0784 0001639  84.6605 275.4574 15.08842126106044,6917.874,95.437,540.873,538.605,0.0
49765.0,STARLINK-3227,PAYLOAD,2023-10-26 14:39:59,15.08840364,0.0001687,53.2183,62.6194,83.5953,276.5231,6.2024e-05,6.99e-06,0.0,0 STARLINK-3227,1 49765U 21115AT  23299.61111085  .00000699  00000-0  62024-4 0  9991,2 49765  53.2183  62.6194 0001687  83.5953 276.5231 15.08840364105087,6917.879,95.438,540.911,538.577,0.0
49765.0,STARLINK-3227,PAYLOAD,2023-10-27 01:47:41,15.08847246,0.0001696,53.2184,60.5372,85.3858,274.7328,0.00020921,3.044e-05,0.0,0 STARLINK-3227,1 49765U 21115AT  23300.07478710  .00003044  00000-0  20921-3 0  9991,2 49765  53.2184  60.5372 0001696  85.3858 274.7328 15.08847246106261,6917.858,95.437,540.897,538.55,0.0
49765.0,STARLINK-3227,PAYLOAD,2023-10-27 14:30:46,15.0885459,0.0001525,53.2179,58.1577,88.6559,271.4608,0.0002774,4.131e-05,0.0,0 STARLINK-3227,1 49765U 21115AT  23300.60470085  .00004131  00000-0  27740-3 0  9991,2 49765  53.2179  58.1577 0001525  88.6559 271.4608 15.08854590105231,6917.836,95.437,540.756,538.646,0.0
49765.0,STARLINK-3227,PAYLOAD,2023-10-27 17:41:32,15.08858954,0.0001673,53.2178,57.5625,89.788,270.3304,0.00040061,6.097e-05,0.0,0 STARLINK-3227,1 49765U 21115AT  23300.73717952  .00006097  00000-0  40061-3 0  9996,2 49765  53.2178  57.5625 0001673  89.7880 270.3304 15.08858954105251,6917.822,95.436,540.845,538.53,0.0
